[{"OBJECT_NAME":"STARLINK-36215","OBJECT_ID":"2025-298AB","EPOCH":"2026-03-09T22:31:42.809088","MEAN_MOTION":14.99137511,"ECCENTRICITY":0.00025723,"INCLINATION":70.0018,"RA_OF_ASC_NODE":13.862,"ARG_OF_PERICENTER":279.071,"MEAN_ANOMALY":81.0158,"EPHEMERIS_TYPE":0,"CLASSIFICATION_TYPE":"U","NORAD_CAT_ID":67100,"ELEMENT_SET_NO":999,"REV_AT_EPOCH":1325,"BSTAR":0.00094826761,"MEAN_MOTION_DOT":0.00011479,"MEAN_MOTION_DDOT":0},{"OBJECT_NAME":"FENGYUN 1C DEB","OBJECT_ID":"1999-025FAR","EPOCH":"2026-03-08T03:43:29.800128","MEAN_MOTION":14.889233,"ECCENTRICITY":0.01703105,"INCLINATION":98.6941,"RA_OF_ASC_NODE":137.2071,"ARG_OF_PERICENTER":197.5148,"MEAN_ANOMALY":162.0149,"EPHEMERIS_TYPE":0,"CLASSIFICATION_TYPE":"U","NORAD_CAT_ID":47015,"ELEMENT_SET_NO":999,"REV_AT_EPOCH":65652,"BSTAR":0.0011723418,"MEAN_MOTION_DOT":0.00014397,"MEAN_MOTION_DDOT":0}]
